[{"OBJECT_NAME":"AUTCUBE 2","OBJECT_ID":"2018-084K","EPOCH":"2026-03-09T11:33:24.036480","MEAN_MOTION":15.09319394,"ECCENTRICITY":0.00096854,"INCLINATION":98.0799,"RA_OF_ASC_NODE":269.364,"ARG_OF_PERICENTER":28.2406,"MEAN_ANOMALY":331.9345,"EPHEMERIS_TYPE":0,"CLASSIFICATION_TYPE":"U","NORAD_CAT_ID":43681,"ELEMENT_SET_NO":999,"REV_AT_EPOCH":40188,"BSTAR":0.00033524122,"MEAN_MOTION_DOT":5.282e-5,"MEAN_MOTION_DDOT":0},{"OBJECT_NAME":"STARLINK-5282","OBJECT_ID":"2022-141N","EPOCH":"2026-03-09T22:50:13.482816","MEAN_MOTION":15.08838571,"ECCENTRICITY":0.00016235,"INCLINATION":53.2192,"RA_OF_ASC_NODE":2.492,"ARG_OF_PERICENTER":96.8499,"MEAN_ANOMALY":263.2678,"EPHEMERIS_TYPE":0,"CLASSIFICATION_TYPE":"U","NORAD_CAT_ID":54169,"ELEMENT_SET_NO":999,"REV_AT_EPOCH":18590,"BSTAR":0.00043287428,"MEAN_MOTION_DOT":6.608e-5,"MEAN_MOTION_DDOT":0}]
